{
"type": "FeatureCollection",
"name": "FUA",
"crs": { "type": "name", "properties": { "name": "urn:ogc:def:crs:OGC:1.3:CRS84" } },
"features": [
{ "type": "Feature", "properties": { "LUAS": 307.896, "fua_id": "fua_01" }, "geometry": { "type": "MultiPolygon", "coordinates": [ [ [ [ 110.447245918538826, -7.058311211539763 ], [ 110.447547830967096, -7.05851695358368 ], [ 110.447823124456534, -7.058699808683939 ], [ 110.448096250280699, -7.058874058771056 ], [ 110.448334693460524, -7.058998830398055 ], [ 110.448433322230301, -7.059678620050651 ], [ 110.448433322230315, -7.059678620050651 ], [ 110.448530867167534, -7.060552019214205 ], [ 110.447512512425519, -7.060605269394361 ], [ 110.447588537049924, -7.061701673549333 ], [ 110.447790730199941, -7.061608567587362 ], [ 110.448140119963185, -7.062070886662231 ], [ 110.447942779448738, -7.062201716455442 ], [ 110.447656473948371, -7.062593402976986 ], [ 110.447315171911143, -7.063243537659552 ], [ 110.447633828315588, -7.063261195625845 ], [ 110.448064095338808, -7.063262800895464 ], [ 110.447798817926, -7.064096737714081 ], [ 110.447307084185169, -7.064022895438577 ], [ 110.447208413927953, -7.064032527040399 ], [ 110.447216501653969, -7.065177080961596 ], [ 110.447368550902766, -7.065266975679711 ], [ 110.447362889494627, -7.065692370090832 ], [ 110.447259366601784, -7.066355342486946 ], [ 110.447238338514182, -7.06656402609524 ], [ 110.446947180378174, -7.066724551883668 ], [ 110.446821011852592, -7.06690273544352 ], [ 110.446550881804171, -7.066978182515734 ], [ 110.446321190385788, -7.066925209040789 ], [ 110.446104439328963, -7.067032761241138 ], [ 110.445705714437167, -7.067326523093691 ], [ 110.445513052365385, -7.067505445674464 ], [ 110.44557895659284, -7.067585942257064 ], [ 110.445335617906835, -7.068078983519521 ], [ 110.445091011831806, -7.068647489628314 ], [ 110.444945262098003, -7.06895186650527 ], [ 110.444793175419221, -7.068983310386095 ], [ 110.444689087278988, -7.06905778792317 ], [ 110.444465866041369, -7.069435021401755 ], [ 110.444229704442151, -7.069749649939795 ], [ 110.443906195402135, -7.070106014657781 ], [ 110.443671651348126, -7.070298644120609 ], [ 110.443093378939125, -7.069941476928013 ], [ 110.442166525539449, -7.069207878727066 ], [ 110.441768609420208, -7.069442245018546 ], [ 110.4415033320074, -7.069431008281263 ], [ 110.441388486298194, -7.069490402460987 ], [ 110.441212173871406, -7.069492007708979 ], [ 110.441015642129614, -7.070219987099658 ], [ 110.44073338049219, -7.070952781071928 ], [ 110.440381160024856, -7.070710790638993 ], [ 110.440270795572317, -7.070925933391637 ], [ 110.439845430999981, -7.070669613999986 ], [ 110.439783159999976, -7.070637571000021 ], [ 110.439440601999976, -7.070461294999967 ], [ 110.43940382, -7.070444829999979 ], [ 110.438945526999973, -7.070239671000021 ], [ 110.43814353599997, -7.069856029999974 ], [ 110.437688286000011, -7.069472806000019 ], [ 110.437558450999958, -7.06927732700001 ], [ 110.437548278999984, -7.069262013000017 ], [ 110.437170772, -7.068693637000017 ], [ 110.436837538, -7.06864507 ], [ 110.43683555899996, -7.068644781 ], [ 110.435595868, -7.068464106000019 ], [ 110.434872768999966, -7.068384057 ], [ 110.434828472, -7.06838701499998 ], [ 110.434810679000023, -7.068388202999976 ], [ 110.435019592, -7.067973525000017 ], [ 110.435260738000011, -7.067604338000032 ], [ 110.435284271, -7.067574716000018 ], [ 110.435396205000018, -7.067433820000017 ], [ 110.435419172000024, -7.067404911999978 ], [ 110.435484248000023, -7.067322997000023 ], [ 110.435496757999985, -7.067307250999984 ], [ 110.435531954999988, -7.067262947000017 ], [ 110.435595879, -7.067182482000015 ], [ 110.436007295000024, -7.066795907000027 ], [ 110.436199792000025, -7.066642904 ], [ 110.43633730900001, -7.066533600000017 ], [ 110.436393169999974, -7.066489199999971 ], [ 110.436500906999967, -7.066403566000015 ], [ 110.43672568300002, -7.066304091 ], [ 110.436734926999975, -7.0663 ], [ 110.436740056000019, -7.066297729999977 ], [ 110.436765228000013, -7.06628659 ], [ 110.436874879, -7.066265000999969 ], [ 110.437403561999972, -7.066160906999976 ], [ 110.437475748999972, -7.066146694 ], [ 110.437665729, -7.066085059999972 ], [ 110.437685591, -7.066078618 ], [ 110.437745905999961, -7.066059048999987 ], [ 110.437813042, -7.066002056 ], [ 110.437822480000023, -7.065994043999976 ], [ 110.437880709000012, -7.065944612000012 ], [ 110.437904576, -7.065924350999975 ], [ 110.437963427999975, -7.065878739000032 ], [ 110.438059838, -7.065804013999976 ], [ 110.43806547399997, -7.06579964600001 ], [ 110.438116117999968, -7.065760393 ], [ 110.438175059, -7.065566928 ], [ 110.43817988, -7.065508401 ], [ 110.438184531999966, -7.065451935 ], [ 110.438204476000024, -7.065209824000019 ], [ 110.438205375, -7.06519891200003 ], [ 110.438210805999972, -7.065132979999983 ], [ 110.438185746999963, -7.064818206999965 ], [ 110.438165824, -7.064611888 ], [ 110.438168097000016, -7.064572764999982 ], [ 110.438168336999965, -7.064568635 ], [ 110.438182686, -7.064321603 ], [ 110.438201285, -7.064095826000022 ], [ 110.438202794, -7.064077506999986 ], [ 110.438180482999982, -7.063960528999984 ], [ 110.43815685300001, -7.063836631000021 ], [ 110.437995254999976, -7.063661593000011 ], [ 110.437751014, -7.063559032 ], [ 110.437325158000021, -7.063449655 ], [ 110.437263846999983, -7.06343139 ], [ 110.436902625, -7.063323785000019 ], [ 110.436589068999965, -7.063194748 ], [ 110.436318421999985, -7.063082258 ], [ 110.436143608, -7.062913803 ], [ 110.436005151, -7.062718999000031 ], [ 110.435912953000013, -7.062501159000015 ], [ 110.435863690000019, -7.062276772000013 ], [ 110.435841166999964, -7.062046909999986 ], [ 110.435837791999973, -7.062012466 ], [ 110.435794913, -7.061522086000029 ], [ 110.435781882, -7.061222343 ], [ 110.435728676, -7.060917198000018 ], [ 110.435662056000012, -7.060628096000016 ], [ 110.435628278000024, -7.060408294000013 ], [ 110.435592951999979, -7.060178419 ], [ 110.43555347799996, -7.059863823 ], [ 110.435539888999969, -7.059755526 ], [ 110.435492104999966, -7.059396864 ], [ 110.435465709000027, -7.059073019 ], [ 110.435348235, -7.058749064999969 ], [ 110.435279783999988, -7.058537974 ], [ 110.43478725, -7.058237650000029 ], [ 110.434505391000016, -7.057983966999975 ], [ 110.433998884, -7.057426716 ], [ 110.433554937000011, -7.056824344999987 ], [ 110.433122616999981, -7.055962696 ], [ 110.433121104, -7.055959584999981 ], [ 110.432946852999976, -7.055600907 ], [ 110.432576015, -7.055091394999979 ], [ 110.432343187, -7.05466293 ], [ 110.432229431999957, -7.054220336000012 ], [ 110.432201131, -7.053996695000019 ], [ 110.432116312881561, -7.053996761514655 ], [ 110.432094874731689, -7.053911510188606 ], [ 110.432313023460608, -7.053230546152592 ], [ 110.432452441821113, -7.052814370826413 ], [ 110.432606075387127, -7.052480128051139 ], [ 110.432689179664806, -7.052318975198308 ], [ 110.432822037161316, -7.051958144533225 ], [ 110.432974030511289, -7.051597856190178 ], [ 110.433053854356928, -7.051470887038639 ], [ 110.433302620451272, -7.051095948016233 ], [ 110.433573256092373, -7.050776354311818 ], [ 110.433709394020894, -7.050609232218987 ], [ 110.433829676528006, -7.050331418736468 ], [ 110.434096484998435, -7.049621691348901 ], [ 110.434370947810223, -7.048898940323166 ], [ 110.434505445522774, -7.048575546856475 ], [ 110.434602765005849, -7.048273857445839 ], [ 110.434688056238201, -7.047785510861247 ], [ 110.434835675678812, -7.047429560137584 ], [ 110.434978921210032, -7.047152829965368 ], [ 110.435166452573483, -7.04697485439474 ], [ 110.435332661128854, -7.046933073534416 ], [ 110.435466065364068, -7.04696128918077 ], [ 110.435689134740926, -7.047194068197589 ], [ 110.435911110640532, -7.047483820936298 ], [ 110.436046701830435, -7.047781170000408 ], [ 110.436122151766739, -7.047964571335354 ], [ 110.436257742956627, -7.048096967520197 ], [ 110.436394427623839, -7.048158824741132 ], [ 110.436491747106899, -7.048156654312468 ], [ 110.436946633679426, -7.047752954403983 ], [ 110.437303107291584, -7.047453434889794 ], [ 110.43740644090002, -7.047339487197712 ], [ 110.437577023364682, -7.047103995211927 ], [ 110.437699492826539, -7.046952607443614 ], [ 110.43786460790453, -7.046840830063228 ], [ 110.438041204494567, -7.04679145266817 ], [ 110.438226002164669, -7.046804475278365 ], [ 110.438702758283952, -7.04696508744072 ], [ 110.439174047016564, -7.047087716959643 ], [ 110.441878216472986, -7.045908084755562 ], [ 110.442082696735071, -7.045902658657539 ], [ 110.44297825467477, -7.046219542676103 ], [ 110.444762809690133, -7.047322123737399 ], [ 110.445110535483551, -7.047643347647703 ], [ 110.445526056871913, -7.048240215808736 ], [ 110.445757874067525, -7.048788248625073 ], [ 110.445953606510784, -7.049487667782866 ], [ 110.446186125361294, -7.049676401954784 ], [ 110.445641012628855, -7.050360266383758 ], [ 110.445915995312859, -7.050535245617715 ], [ 110.446034076112468, -7.050353845126212 ], [ 110.446309058796501, -7.05053042967638 ], [ 110.446059956835697, -7.050967074820527 ], [ 110.446224946446108, -7.051082657289794 ], [ 110.445933788310072, -7.051501643499106 ], [ 110.445799532058473, -7.05155140811947 ], [ 110.445681451258864, -7.051482379773648 ], [ 110.445576310820883, -7.051594751494145 ], [ 110.445226921057625, -7.051591540873946 ], [ 110.44505384372124, -7.051544986878439 ], [ 110.444727099590821, -7.051920629329412 ], [ 110.444586373158415, -7.051755282476126 ], [ 110.444334036107193, -7.052050659337618 ], [ 110.444105962233991, -7.051943103654431 ], [ 110.444089786781959, -7.052153399071364 ], [ 110.4441722815872, -7.052315535167332 ], [ 110.4441334605024, -7.052485697741663 ], [ 110.44401537970279, -7.052617332897777 ], [ 110.443788923374768, -7.05273612556752 ], [ 110.443696723298359, -7.05252743572205 ], [ 110.443408800252755, -7.052395800540383 ], [ 110.443148375475474, -7.052338009473191 ], [ 110.443017354314264, -7.052720072505822 ], [ 110.442993091136259, -7.052906287987316 ], [ 110.443052940308704, -7.053278718725648 ], [ 110.443039999947104, -7.053397511225742 ], [ 110.442826483980667, -7.053705729462216 ], [ 110.442786045350658, -7.053819705945626 ], [ 110.442837806797073, -7.054021974002041 ], [ 110.443177491289106, -7.055041339449495 ], [ 110.443353803715937, -7.055699511223153 ], [ 110.443479972241562, -7.056322365600789 ], [ 110.444088978009376, -7.056344438388744 ], [ 110.44486944356845, -7.056487710823156 ], [ 110.445725124979319, -7.056681148605411 ], [ 110.445896584770523, -7.056723688853731 ], [ 110.445952390079924, -7.056804756108593 ], [ 110.446317146522532, -7.056685964482788 ], [ 110.446859024164581, -7.05657359399788 ], [ 110.446917255791789, -7.056742149714999 ], [ 110.447189003385404, -7.056746965591734 ], [ 110.447182533204597, -7.056923547703918 ], [ 110.44736855090261, -7.05692996887036 ], [ 110.447307084184999, -7.057307212242704 ], [ 110.447449428162585, -7.057385871460339 ], [ 110.447373403538194, -7.057796825522752 ], [ 110.447339435088992, -7.058056882201864 ], [ 110.447245918538826, -7.058311211539763 ] ] ] ] } }
]
}
